<?xml version="1.0" encoding="UTF-8"?>
<kml xmlns="http://www.opengis.net/kml/2.2">
<Document>
<name>Red Bull Ring - Spielberg</name>
<Placemark>
<name>Red Bull Ring - Spielberg</name>
<LineString>
<coordinates>
14.76487624194774,47.21997245186161,678.1365003798783
14.76314586965437,47.21963621980515,680.3417455000643
14.76097020872361,47.21923869672502,692.8838174930009
14.76012815642261,47.22009495502922,697.0909063598349
14.75846005249936,47.22174999739338,698.5066736291402
14.75732391728115,47.22335554143348,700.8163226417439
14.75646004424938,47.22441645144458,708.9806525003315
14.75460393879461,47.22573475402799,733.0115120397123
14.75405129506121,47.22620764553224,743.5690453686365
14.75599778727778,47.22635915396449,743.849360512127
14.75886606768823,47.22613327869681,734.1214446114999
14.76232588162853,47.22577476382757,723.1846279454304
14.76463730158432,47.22558362519527,712.8512738208861
14.76267457900924,47.22434360338865,706.880083032179
14.76032951081481,47.22450377080221,709.7028309971951
14.75884823579247,47.22430901132706,709.9747991676659
14.75886565490064,47.22341417345291,700.697773255596
14.75980839563576,47.22228755654289,691.1153886681211
14.76182301764482,47.22262730256127,692.7377160567393
14.76476842181824,47.22307521195745,700.1169229930522
14.76992955287121,47.22294989901103,696.3132996342589
14.77064935367619,47.22135616610584,684.5629546332037
14.76829567306118,47.22057619230506,679.4215767672998
14.76650382470377,47.22026147032282,677.9916163447594
14.76487624194774,47.21997245186161,678.1365003798783
</coordinates>
</LineString>
</Placemark>
</Document>
</kml>
